NORAD_CAT_ID,OBJECT_NAME,OBJECT_TYPE,EPOCH,MEAN_MOTION,ECCENTRICITY,INCLINATION,RA_OF_ASC_NODE,ARG_OF_PERICENTER,MEAN_ANOMALY,BSTAR,MEAN_MOTION_DOT,MEAN_MOTION_DDOT,TLE_LINE0,TLE_LINE1,TLE_LINE2,SEMIMAJOR_AXIS,PERIOD,APOGEE,PERIGEE,DECAYED
53836.0,STARLINK-4778,PAYLOAD,2023-03-28 23:45:50,15.08845588,0.0001447,53.2182,87.8153,76.5795,283.5359,-8.2509e-05,-1.601e-05,0.0,0 STARLINK-4778,1 53836U 22114U   23087.99016823 -.00001601  00000-0 -82509-4 0  9991,2 53836  53.2182  87.8153 0001447  76.5795 283.5359 15.08845588 29889,6917.863,95.437,540.729,538.727,0.0
53836.0,STARLINK-4778,PAYLOAD,2023-03-29 09:18:09,15.0884886,0.0001152,53.2169,86.0295,83.7195,276.3929,-2.066e-05,-6.17e-06,0.0,0 STARLINK-4778,1 53836U 22114U   23088.38760620 -.00000617  00000-0 -20660-4 0  9992,2 53836  53.2169  86.0295 0001152  83.7195 276.3929 15.08848860 30486,6917.853,95.437,540.515,538.921,0.0
53836.0,STARLINK-4778,PAYLOAD,2023-03-29 17:15:04,15.08847382,0.0001092,53.2163,84.5437,83.5203,276.5914,-7.06e-06,-4e-06,0.0,0 STARLINK-4778,1 53836U 22114U   23088.71880638 -.00000400  00000-0 -70600-5 0  9991,2 53836  53.2163  84.5437 0001092  83.5203 276.5914 15.08847382 30532,6917.858,95.437,540.478,538.967,0.0
53836.0,STARLINK-4778,PAYLOAD,2023-03-30 05:58:10,15.08845432,0.0001101,53.2178,82.1649,86.7621,273.3497,9.7589e-05,1.266e-05,0.0,0 STARLINK-4778,1 53836U 22114U   23089.24872749  .00001266  00000-0  97589-4 0  9997,2 53836  53.2178  82.1649 0001101  86.7621 273.3497 15.08845432 30071,6917.864,95.437,540.49,538.967,0.0
53836.0,STARLINK-4778,PAYLOAD,2023-03-30 10:44:19,15.08853004,0.0001223,53.2171,81.2719,87.3437,272.7695,0.00020104,2.914e-05,0.0,0 STARLINK-4778,1 53836U 22114U   23089.44744322  .00002914  00000-0  20104-3 0  9993,2 53836  53.2171  81.2719 0001223  87.3437 272.7695 15.08853004 30100,6917.841,95.437,540.552,538.86,0.0
53836.0,STARLINK-4778,PAYLOAD,2023-03-31 02:38:11,15.08836343,0.0001154,53.2159,78.2995,93.7009,266.4115,0.00010746,1.423e-05,0.0,0 STARLINK-4778,1 53836U 22114U   23090.10985414  .00001423  00000-0  10746-3 0  9992,2 53836  53.2159  78.2995 0001154  93.7009 266.4115 15.08836343 30202,6917.892,95.438,540.555,538.958,0.0
53836.0,STARLINK-4778,PAYLOAD,2023-03-31 08:59:43,15.08845678,0.0001255,53.2174,77.1089,94.1899,265.9236,0.00024161,3.56e-05,0.0,0 STARLINK-4778,1 53836U 22114U   23090.37481037  .00003560  00000-0  24161-3 0  9993,2 53836  53.2174  77.1089 0001255  94.1899 265.9236 15.08845678 30248,6917.863,95.437,540.596,538.86,0.0
53836.0,STARLINK-4778,PAYLOAD,2023-04-01 07:15:07,15.08849235,0.0001082,53.2169,72.9473,101.7416,258.3698,0.00025582,3.787e-05,0.0,0 STARLINK-4778,1 53836U 22114U   23091.30216844  .00003787  00000-0  25582-3 0  9998,2 53836  53.2169  72.9473 0001082 101.7416 258.3698 15.08849235 30926,6917.852,95.437,540.466,538.969,0.0
53836.0,STARLINK-4778,PAYLOAD,2023-04-01 15:12:03,15.08840543,0.0001097,53.2171,71.4609,105.1622,254.9492,0.00016967,2.414e-05,0.0,0 STARLINK-4778,1 53836U 22114U   23091.63337191  .00002414  00000-0  16967-3 0  9996,2 53836  53.2171  71.4609 0001097 105.1622 254.9492 15.08840543 30430,6917.879,95.438,540.503,538.985,0.0
53836.0,STARLINK-4778,PAYLOAD,2023-04-02 07:05:54,15.0885105,0.0001327,53.2183,68.4901,117.0889,243.0239,-0.00024403,-4.171e-05,0.0,0 STARLINK-4778,1 53836U 22114U   23092.29576731 -.00004171  00000-0 -24403-3 0  9992,2 53836  53.2183  68.4901 0001327 117.0889 243.0239 15.08851050 31071,6917.847,95.437,540.63,538.794,0.0
53836.0,STARLINK-4778,PAYLOAD,2023-04-03 05:21:18,15.08839135,0.0001109,53.2179,64.3253,108.6913,251.4199,4.8272e-05,4.81e-06,0.0,0 STARLINK-4778,1 53836U 22114U   23093.22313556  .00000481  00000-0  48272-4 0  9999,2 53836  53.2179  64.3253 0001109 108.6913 251.4199 15.08839135 30676,6917.883,95.438,540.515,538.981,0.0
53836.0,STARLINK-4778,PAYLOAD,2023-04-03 08:32:05,15.08839981,0.0001029,53.2175,63.7298,101.9122,258.1985,7.0527e-05,8.35e-06,0.0,0 STARLINK-4778,1 53836U 22114U   23093.35561535  .00000835  00000-0  70527-4 0  9996,2 53836  53.2175  63.7298 0001029 101.9122 258.1985 15.08839981 31232,6917.88,95.438,540.457,539.034,0.0
53836.0,STARLINK-4778,PAYLOAD,2023-04-04 06:47:28,15.0885004,0.0001196,53.2175,59.5648,102.6889,257.4237,0.0002341,3.441e-05,0.0,0 STARLINK-4778,1 53836U 22114U   23094.28297080  .00003441  00000-0  23410-3 0  9994,2 53836  53.2175  59.5648 0001196 102.6889 257.4237 15.08850040 30833,6917.85,95.437,540.542,538.887,0.0
53836.0,STARLINK-4778,PAYLOAD,2023-04-04 09:58:14,15.08857001,0.0001221,53.2182,58.9705,84.271,275.8422,0.00023596,3.471e-05,0.0,0 STARLINK-4778,1 53836U 22114U   23094.41544730  .00003471  00000-0  23596-3 0  9994,2 53836  53.2182  58.9705 0001221  84.2710 275.8422 15.08857001 31391,6917.828,95.436,540.538,538.849,0.0
53836.0,STARLINK-4778,PAYLOAD,2023-04-04 21:05:57,15.08834342,0.0001419,53.2186,56.886,102.9096,257.2055,-2.3742e-05,-6.66e-06,0.0,0 STARLINK-4778,1 53836U 22114U   23094.87913969 -.00000666  00000-0 -23742-4 0  9997,2 53836  53.2186  56.8860 0001419 102.9096 257.2055 15.08834342 30925,6917.898,95.438,540.744,538.781,0.0
53836.0,STARLINK-4778,PAYLOAD,2023-04-05 06:38:15,15.08846034,0.0001382,53.2175,55.1035,100.0596,260.0552,0.00016043,2.267e-05,0.0,0 STARLINK-4778,1 53836U 22114U   23095.27657366  .00002267  00000-0  16043-3 0  9990,2 53836  53.2175  55.1035 0001382 100.0596 260.0552 15.08846034 31524,6917.862,95.437,540.683,538.771,0.0
53836.0,STARLINK-4778,PAYLOAD,2023-04-06 06:29:02,15.08846401,0.0001306,53.2176,50.6428,101.7775,258.3364,0.00014994,2.1e-05,0.0,0 STARLINK-4778,1 53836U 22114U   23096.27017334  .00002100  00000-0  14994-3 0  9995,2 53836  53.2176  50.6428 0001306 101.7775 258.3364 15.08846401 31130,6917.861,95.437,540.629,538.822,0.0
53836.0,STARLINK-4778,PAYLOAD,2023-04-07 06:19:50,15.08843225,0.0001306,53.2185,46.1828,98.3581,261.756,0.0001215,1.646e-05,0.0,0 STARLINK-4778,1 53836U 22114U   23097.26377705  .00001646  00000-0  12150-3 0  9992,2 53836  53.2185  46.1828 0001306  98.3581 261.7560 15.08843225 31283,6917.871,95.437,540.639,538.832,0.0
53836.0,STARLINK-4778,PAYLOAD,2023-04-08 06:10:37,15.08850637,0.0001348,53.2185,41.7231,95.8447,264.2699,0.00024628,3.635e-05,0.0,0 STARLINK-4778,1 53836U 22114U   23098.25737339  .00003635  00000-0  24628-3 0  9998,2 53836  53.2185  41.7231 0001348  95.8447 264.2699 15.08850637 31973,6917.848,95.437,540.645,538.78,0.0
53836.0,STARLINK-4778,PAYLOAD,2023-04-08 20:29:05,15.08842325,0.0001744,53.2186,39.0458,94.3502,265.7689,6.8166e-05,7.97e-06,0.0,0 STARLINK-4778,1 53836U 22114U   23098.85353740  .00000797  00000-0  68166-4 0  9996,2 53836  53.2186  39.0458 0001744  94.3502 265.7689 15.08842325 31522,6917.873,95.437,540.945,538.532,0.0
53836.0,STARLINK-4778,PAYLOAD,2023-04-09 06:01:24,15.08845242,0.000101,53.2182,37.2636,85.9443,274.1665,0.00013508,1.863e-05,0.0,0 STARLINK-4778,1 53836U 22114U   23099.25097579  .00001863  00000-0  13508-3 0  9990,2 53836  53.2182  37.2636 0001010  85.9443 274.1665 15.08845242 32128,6917.864,95.437,540.428,539.031,0.0
53836.0,STARLINK-4778,PAYLOAD,2023-04-10 04:16:48,15.08844639,0.0001045,53.2176,33.1009,104.0124,256.0984,0.0001036,1.362e-05,0.0,0 STARLINK-4778,1 53836U 22114U   23100.17833685  .00001362  00000-0  10360-3 0  9997,2 53836  53.2176  33.1009 0001045 104.0124 256.0984 15.08844639 31724,6917.866,95.437,540.454,539.008,0.0
53836.0,STARLINK-4778,PAYLOAD,2023-04-11 05:42:59,15.08830906,8.29e-05,53.2191,28.3439,103.0438,257.0646,5.0029e-06,-2.08e-06,0.0,0 STARLINK-4778,1 53836U 22114U   23101.23819148 -.00000208  00000-0  50029-5 0  9990,2 53836  53.2191  28.3439 0000829 103.0438 257.0646 15.08830906 31885,6917.908,95.438,540.347,539.2,0.0
53836.0,STARLINK-4778,PAYLOAD,2023-04-12 03:58:22,15.08848501,8.1e-05,53.2183,24.1812,124.7579,235.349,0.00010068,1.315e-05,0.0,0 STARLINK-4778,1 53836U 22114U   23102.16553973  .00001315  00000-0  10068-3 0  9990,2 53836  53.2183  24.1812 0000810 124.7579 235.3490 15.08848501 32024,6917.854,95.437,540.28,539.159,0.0
53836.0,STARLINK-4778,PAYLOAD,2023-04-12 11:55:19,15.08836145,0.0001086,53.2195,22.6949,96.2646,263.8469,5.6176e-05,6.06e-06,0.0,0 STARLINK-4778,1 53836U 22114U   23102.49675062  .00000606  00000-0  56176-4 0  9993,2 53836  53.2195  22.6949 0001086  96.2646 263.8469 15.08836145 32073,6917.892,95.438,540.508,539.006,0.0
53836.0,STARLINK-4778,PAYLOAD,2023-04-13 03:49:10,15.08836745,7.06e-05,53.2188,19.7199,125.0835,235.0223,0.00015831,2.233e-05,0.0,0 STARLINK-4778,1 53836U 22114U   23103.15914840  .00002233  00000-0  15831-3 0  9997,2 53836  53.2188  19.7199 0000706 125.0835 235.0223 15.08836745 32714,6917.89,95.438,540.244,539.267,0.0
53836.0,STARLINK-4778,PAYLOAD,2023-04-14 03:39:56,15.08852141,6.89e-05,53.2176,15.2586,124.4969,235.6089,0.00013586,1.876e-05,0.0,0 STARLINK-4778,1 53836U 22114U   23104.15274108  .00001876  00000-0  13586-3 0  9991,2 53836  53.2176  15.2586 0000689 124.4969 235.6089 15.08852141 32324,6917.843,95.437,540.185,539.232,0.0
53836.0,STARLINK-4778,PAYLOAD,2023-04-15 03:30:44,15.08850378,7.87e-05,53.2176,10.7987,101.4182,258.6899,0.00024856,3.671e-05,0.0,0 STARLINK-4778,1 53836U 22114U   23105.14634366  .00003671  00000-0  24856-3 0  9994,2 53836  53.2176  10.7987 0000787 101.4182 258.6899 15.08850378 33011,6917.849,95.437,540.258,539.169,0.0
53836.0,STARLINK-4778,PAYLOAD,2023-04-15 20:59:58,15.0884475,6.76e-05,53.2165,7.5276,94.3429,265.7641,0.00015166,2.127e-05,0.0,0 STARLINK-4778,1 53836U 22114U   23105.87498605  .00002127  00000-0  15166-3 0  9997,2 53836  53.2165   7.5276 0000676  94.3429 265.7641 15.08844750 32587,6917.866,95.437,540.199,539.263,0.0
53836.0,STARLINK-4778,PAYLOAD,2023-04-16 01:46:07,15.08853068,8.48e-05,53.217,6.6369,107.2071,252.9014,0.00036453,5.521e-05,0.0,0 STARLINK-4778,1 53836U 22114U   23106.07370188  .00005521  00000-0  36453-3 0  9998,2 53836  53.2170   6.6369 0000848 107.2071 252.9014 15.08853068 32612,6917.84,95.437,540.292,539.119,0.0
